start=new Date('2021-08-24T00:00:00.000Z').valueOf();
sats=[{"INCLINATION":"53.0528","SEMIMAJOR_AXIS":"6817.839","EPOCH":"2021-08-23T17:56:52.280448","MEAN_MOTION":"15.42171516","DECAY_DATE":null,"ELEMENT_SET_NO":"999","TIME_SYSTEM":"UTC","PERIOD":"93.375","RCS_SIZE":"LARGE","PERIAPSIS":"434.459","SITE":"AFETR","REF_FRAME":"TEME","TLE_LINE2":"2 46339  53.0528 241.7661 0007692 294.4527  65.5675 15.42171516 54583","ECCENTRICITY":"0.00076920","REV_AT_EPOCH":"5458","EPHEMERIS_TYPE":"0","ARG_OF_PERICENTER":"294.4527","MEAN_ELEMENT_THEORY":"SGP4","APOAPSIS":"444.948","BSTAR":"0.00015059000000","NORAD_CAT_ID":"46339","OBJECT_ID":"2020-062Q","CLASSIFICATION_TYPE":"U","OBJECT_NAME":"STARLINK-1757","RA_OF_ASC_NODE":"241.7661","GP_ID":"183330772","MEAN_MOTION_DOT":"0.00006151","LAUNCH_DATE":"2020-09-03","OBJECT_TYPE":"PAYLOAD","TLE_LINE1":"1 46339U 20062Q   21235.74782732  .00006151  00000-0  15059-3 0  9994","MEAN_ANOMALY":"65.5675","CENTER_NAME":"EARTH","MEAN_MOTION_DDOT":"0.0000000000000","FILE":"3102124","COUNTRY_CODE":"US"},{"INCLINATION":"53.0526","SEMIMAJOR_AXIS":"6925.378","EPOCH":"2021-08-23T18:56:07.840896","MEAN_MOTION":"15.06390233","DECAY_DATE":null,"ELEMENT_SET_NO":"999","TIME_SYSTEM":"UTC","PERIOD":"95.593","RCS_SIZE":"LARGE","PERIAPSIS":"546.840","SITE":"AFETR","REF_FRAME":"TEME","TLE_LINE2":"2 46340  53.0526 263.7245 0000582  74.3712 285.7341 15.06390233 54278","ECCENTRICITY":"0.00005820","REV_AT_EPOCH":"5427","EPHEMERIS_TYPE":"0","MEAN_ELEMENT_THEORY":"SGP4","ARG_OF_PERICENTER":"74.3712","APOAPSIS":"547.647","BSTAR":"-0.00006426500000","NORAD_CAT_ID":"46340","OBJECT_ID":"2020-062R","CLASSIFICATION_TYPE":"U","OBJECT_NAME":"STARLINK-1759","RA_OF_ASC_NODE":"263.7245","GP_ID":"183329520","MEAN_MOTION_DOT":"-0.00001238","LAUNCH_DATE":"2020-09-03","OBJECT_TYPE":"PAYLOAD","TLE_LINE1":"1 46340U 20062R   21235.78897964 -.00001238  00000-0 -64265-4 0  9991","MEAN_ANOMALY":"285.7341","CENTER_NAME":"EARTH","MEAN_MOTION_DDOT":"0.0000000000000","FILE":"3102124","COUNTRY_CODE":"US"},{"NORAD_CAT_ID":"46341","EPHEMERIS_TYPE":"0","MEAN_ELEMENT_THEORY":"SGP4","ARG_OF_PERICENTER":"43.4118","APOAPSIS":"547.537","BSTAR":"0.00004129800000","ECCENTRICITY":"0.00004820","REV_AT_EPOCH":"5457","REF_FRAME":"TEME","TLE_LINE2":"2 46341  53.0540 243.4016 0000482  43.4118 316.6909 15.06403492 54571","PERIAPSIS":"546.869","SITE":"AFETR","PERIOD":"95.592","RCS_SIZE":"LARGE","MEAN_MOTION":"15.06403492","DECAY_DATE":null,"ELEMENT_SET_NO":"999","TIME_SYSTEM":"UTC","INCLINATION":"53.0540","SEMIMAJOR_AXIS":"6925.338","EPOCH":"2021-08-23T20:40:59.293632","MEAN_MOTION_DDOT":"0.0000000000000","FILE":"3102124","COUNTRY_CODE":"US","CENTER_NAME":"EARTH","MEAN_ANOMALY":"316.6909","LAUNCH_DATE":"2020-09-03","OBJECT_TYPE":"PAYLOAD","TLE_LINE1":"1 46341U 20062S   21235.86179738  .00000334  00000-0  41298-4 0  9998","GP_ID":"183329770","MEAN_MOTION_DOT":"0.00000334","OBJECT_NAME":"STARLINK-1760","RA_OF_ASC_NODE":"243.4016","CLASSIFICATION_TYPE":"U","OBJECT_ID":"2020-062S"},{"MEAN_MOTION":"15.06400094","DECAY_DATE":null,"ELEMENT_SET_NO":"999","TIME_SYSTEM":"UTC","INCLINATION":"53.0546","SEMIMAJOR_AXIS":"6925.348","EPOCH":"2021-08-23T18:36:15.455232","PERIAPSIS":"546.992","SITE":"AFETR","PERIOD":"95.592","RCS_SIZE":"LARGE","ECCENTRICITY":"0.00003200","REV_AT_EPOCH":"5427","REF_FRAME":"TEME","TLE_LINE2":"2 46342  53.0546 263.7818 0000320  83.3179 276.7846 15.06400094 54272","NORAD_CAT_ID":"46342","EPHEMERIS_TYPE":"0","MEAN_ELEMENT_THEORY":"SGP4","ARG_OF_PERICENTER":"83.3179","APOAPSIS":"547.435","BSTAR":"0.00003705800000","CLASSIFICATION_TYPE":"U","OBJECT_ID":"2020-062T","GP_ID":"183331022","MEAN_MOTION_DOT":"0.00000271","OBJECT_NAME":"STARLINK-1762","RA_OF_ASC_NODE":"263.7818","MEAN_ANOMALY":"276.7846","LAUNCH_DATE":"2020-09-03","OBJECT_TYPE":"PAYLOAD","TLE_LINE1":"1 46342U 20062T   21235.77517888  .00000271  00000-0  37058-4 0  9990","MEAN_MOTION_DDOT":"0.0000000000000","FILE":"3102124","COUNTRY_CODE":"US","CENTER_NAME":"EARTH"},{"CLASSIFICATION_TYPE":"U","OBJECT_ID":"2020-062U","GP_ID":"183302826","MEAN_MOTION_DOT":"0.00000265","OBJECT_NAME":"STARLINK-1764","RA_OF_ASC_NODE":"244.9961","MEAN_ANOMALY":"303.5162","LAUNCH_DATE":"2020-09-03","OBJECT_TYPE":"PAYLOAD","TLE_LINE1":"1 46343U 20062U   21235.50426131  .00000265  00000-0  36641-4 0  9992","MEAN_MOTION_DDOT":"0.0000000000000","FILE":"3101910","COUNTRY_CODE":"US","CENTER_NAME":"EARTH","MEAN_MOTION":"15.06397071","DECAY_DATE":null,"ELEMENT_SET_NO":"999","TIME_SYSTEM":"UTC","INCLINATION":"53.0539","SEMIMAJOR_AXIS":"6925.358","EPOCH":"2021-08-23T12:06:08.177184","PERIAPSIS":"546.615","SITE":"AFETR","PERIOD":"95.592","RCS_SIZE":"LARGE","ECCENTRICITY":"0.00008770","REV_AT_EPOCH":"5451","REF_FRAME":"TEME","TLE_LINE2":"2 46343  53.0539 244.9961 0000877  56.5911 303.5162 15.06397071 54515","NORAD_CAT_ID":"46343","EPHEMERIS_TYPE":"0","ARG_OF_PERICENTER":"56.5911","MEAN_ELEMENT_THEORY":"SGP4","APOAPSIS":"547.830","BSTAR":"0.00003664100000"},{"TLE_LINE1":"1 46344U 20062V   21235.72172903  .00000843  00000-0  75457-4 0  9992","OBJECT_TYPE":"PAYLOAD","LAUNCH_DATE":"2020-09-03","MEAN_ANOMALY":"328.3002","CENTER_NAME":"EARTH","COUNTRY_CODE":"US","FILE":"3102124","MEAN_MOTION_DDOT":"0.0000000000000","OBJECT_ID":"2020-062V","CLASSIFICATION_TYPE":"U","RA_OF_ASC_NODE":"244.0236","OBJECT_NAME":"STARLINK-1765","MEAN_MOTION_DOT":"0.00000843","GP_ID":"183330021","TLE_LINE2":"2 46344  53.0526 244.0236 0000599  31.8023 328.3002 15.06402720 54548","REF_FRAME":"TEME","REV_AT_EPOCH":"5454","ECCENTRICITY":"0.00005990","BSTAR":"0.00007545700000","APOAPSIS":"547.620","ARG_OF_PERICENTER":"31.8023","MEAN_ELEMENT_THEORY":"SGP4","EPHEMERIS_TYPE":"0","NORAD_CAT_ID":"46344","EPOCH":"2021-08-23T17:19:17.388192","SEMIMAJOR_AXIS":"6925.340","INCLINATION":"53.0526","TIME_SYSTEM":"UTC","ELEMENT_SET_NO":"999","MEAN_MOTION":"15.06402720","DECAY_DATE":null,"RCS_SIZE":"LARGE","PERIOD":"95.592","SITE":"AFETR","PERIAPSIS":"546.790"},{"ECCENTRICITY":"0.00004600","REV_AT_EPOCH":"5427","REF_FRAME":"TEME","TLE_LINE2":"2 46345  53.0533 263.7079 0000460  67.8782 292.2255 15.06391960 54270","NORAD_CAT_ID":"46345","MEAN_ELEMENT_THEORY":"SGP4","ARG_OF_PERICENTER":"67.8782","EPHEMERIS_TYPE":"0","BSTAR":"0.00006617600000","APOAPSIS":"547.557","ELEMENT_SET_NO":"999","DECAY_DATE":null,"MEAN_MOTION":"15.06391960","TIME_SYSTEM":"UTC","INCLINATION":"53.0533","EPOCH":"2021-08-23T18:57:30.412512","SEMIMAJOR_AXIS":"6925.373","PERIAPSIS":"546.920","SITE":"AFETR","RCS_SIZE":"LARGE","PERIOD":"95.593","MEAN_ANOMALY":"292.2255","OBJECT_TYPE":"PAYLOAD","LAUNCH_DATE":"2020-09-03","TLE_LINE1":"1 46345U 20062W   21235.78993533  .00000705  00000-0  66176-4 0  9994","FILE":"3102124","MEAN_MOTION_DDOT":"0.0000000000000","COUNTRY_CODE":"US","CENTER_NAME":"EARTH","CLASSIFICATION_TYPE":"U","OBJECT_ID":"2020-062W","GP_ID":"183330271","MEAN_MOTION_DOT":"0.00000705","OBJECT_NAME":"STARLINK-1767","RA_OF_ASC_NODE":"263.7079"},{"APOAPSIS":"463.749","BSTAR":"-0.00001638000000","EPHEMERIS_TYPE":"0","MEAN_ELEMENT_THEORY":"SGP4","ARG_OF_PERICENTER":"135.1565","NORAD_CAT_ID":"46346","TLE_LINE2":"2 46346  53.0537 166.8644 0000953 135.1565 224.9513 15.34268073 55797","REF_FRAME":"TEME","REV_AT_EPOCH":"5579","ECCENTRICITY":"0.00009530","PERIOD":"93.856","RCS_SIZE":"LARGE","SITE":"AFETR","PERIAPSIS":"462.445","SEMIMAJOR_AXIS":"6841.232","EPOCH":"2021-08-23T12:30:10.346976","INCLINATION":"53.0537","TIME_SYSTEM":"UTC","MEAN_MOTION":"15.34268073","DECAY_DATE":null,"ELEMENT_SET_NO":"999","CENTER_NAME":"EARTH","COUNTRY_CODE":"US","MEAN_MOTION_DDOT":"0.0000000000000","FILE":"3101944","TLE_LINE1":"1 46346U 20062X   21235.52095309 -.00000927  00000-0 -16380-4 0  9991","LAUNCH_DATE":"2020-09-03","OBJECT_TYPE":"PAYLOAD","MEAN_ANOMALY":"224.9513","RA_OF_ASC_NODE":"166.8644","OBJECT_NAME":"STARLINK-1546","MEAN_MOTION_DOT":"-0.00000927","GP_ID":"183305042","OBJECT_ID":"2020-062X","CLASSIFICATION_TYPE":"U"},{"INCLINATION":"53.0537","SEMIMAJOR_AXIS":"6925.342","EPOCH":"2021-08-23T22:43:45.075072","MEAN_MOTION":"15.06402256","DECAY_DATE":null,"ELEMENT_SET_NO":"999","TIME_SYSTEM":"UTC","PERIOD":"95.592","RCS_SIZE":"LARGE","PERIAPSIS":"546.549","SITE":"AFETR","REF_FRAME":"TEME","TLE_LINE2":"2 46347  53.0537 217.9926 0000950  58.6666 301.4415 15.06402256 54914","ECCENTRICITY":"0.00009500","REV_AT_EPOCH":"5491","EPHEMERIS_TYPE":"0","ARG_OF_PERICENTER":"58.6666","MEAN_ELEMENT_THEORY":"SGP4","APOAPSIS":"547.865","BSTAR":"0.00005616400000","NORAD_CAT_ID":"46347","OBJECT_ID":"2020-062Y","CLASSIFICATION_TYPE":"U","OBJECT_NAME":"STARLINK-1547","RA_OF_ASC_NODE":"217.9926","GP_ID":"183330773","MEAN_MOTION_DOT":"0.00000555","LAUNCH_DATE":"2020-09-03","OBJECT_TYPE":"PAYLOAD","TLE_LINE1":"1 46347U 20062Y   21235.94704948  .00000555  00000-0  56164-4 0  9993","MEAN_ANOMALY":"301.4415","CENTER_NAME":"EARTH","MEAN_MOTION_DDOT":"0.0000000000000","FILE":"3102124","COUNTRY_CODE":"US"},{"TLE_LINE2":"2 46348  53.0533 243.9975 0000821  74.4160 285.6920 15.06388872 54546","REF_FRAME":"TEME","REV_AT_EPOCH":"5454","ECCENTRICITY":"0.00008210","BSTAR":"-0.00006512100000","APOAPSIS":"547.816","MEAN_ELEMENT_THEORY":"SGP4","ARG_OF_PERICENTER":"74.4160","EPHEMERIS_TYPE":"0","NORAD_CAT_ID":"46348","EPOCH":"2021-08-23T17:24:36.278496","SEMIMAJOR_AXIS":"6925.383","INCLINATION":"53.0533","TIME_SYSTEM":"UTC","ELEMENT_SET_NO":"999","MEAN_MOTION":"15.06388872","DECAY_DATE":null,"RCS_SIZE":"LARGE","PERIOD":"95.593","SITE":"AFETR","PERIAPSIS":"546.679","TLE_LINE1":"1 46348U 20062Z   21235.72541989 -.00001251  00000-0 -65121-4 0  9993","OBJECT_TYPE":"PAYLOAD","LAUNCH_DATE":"2020-09-03","MEAN_ANOMALY":"285.6920","CENTER_NAME":"EARTH","COUNTRY_CODE":"US","FILE":"3102124","MEAN_MOTION_DDOT":"0.0000000000000","OBJECT_ID":"2020-062Z","CLASSIFICATION_TYPE":"U","RA_OF_ASC_NODE":"243.9975","OBJECT_NAME":"STARLINK-1553","MEAN_MOTION_DOT":"-0.00001251","GP_ID":"183329521"}];
